NORAD_CAT_ID,OBJECT_NAME,OBJECT_TYPE,EPOCH,MEAN_MOTION,ECCENTRICITY,INCLINATION,RA_OF_ASC_NODE,ARG_OF_PERICENTER,MEAN_ANOMALY,BSTAR,MEAN_MOTION_DOT,MEAN_MOTION_DDOT,TLE_LINE0,TLE_LINE1,TLE_LINE2,SEMIMAJOR_AXIS,PERIOD,APOGEE,PERIGEE,DECAYED
51889.0,STARLINK-3547,PAYLOAD,2022-08-06 06:00:00,15.08815518,0.0002576,53.217,126.3999,61.168,241.325,0.0016741,0.00026439,0.0,0 STARLINK-3547,1 51889U 22022AP  22218.25001157  .00026439  00000-0  16741-2 0  9990,2 51889  53.2170 126.3999 0002576  61.1680 241.3250 15.08815518 25255,6917.955,95.439,541.602,538.038,0.0
51889.0,STARLINK-3547,PAYLOAD,2022-08-06 14:00:01,15.08808393,0.0002485999999999,53.2171,124.9019,67.0081,247.0726,0.002895,0.00046048,0.0,0 STARLINK-3547,1 51889U 22022AP  22218.58334491  .00046048  00000-0  28950-2 0  9999,2 51889  53.2171 124.9019 0002486  67.0081 247.0726 15.08808393  1307,6917.977,95.44,541.562,538.122,0.0
51889.0,STARLINK-3547,PAYLOAD,2022-08-06 22:00:00,15.0884919,0.0002592,53.2173,123.4066,66.1363,259.5161,-0.0015487,-0.00024859,0.0,0 STARLINK-3547,1 51889U 22022AP  22218.91667824 -.00024859  00000-0 -15487-2 0  9994,2 51889  53.2173 123.4066 0002592  66.1363 259.5161 15.08849190 25358,6917.852,95.437,541.51,537.924,0.0
51889.0,STARLINK-3547,PAYLOAD,2022-08-07 14:00:01,15.08665924,0.0002009999999999,53.2176,120.4115,72.3892,276.3428,0.019441,0.00322013,0.0,0 STARLINK-3547,1 51889U 22022AP  22219.58334491  .00322013  00000-0  19441-1 0  9993,2 51889  53.2176 120.4115 0002010  72.3892 276.3428 15.08665924  1307,6918.413000000001,95.449,541.668,538.887,0.0
51889.0,STARLINK-3547,PAYLOAD,2022-08-07 22:00:00,15.08869538,0.000177,53.2176,118.9181,68.1635,292.0895,-0.00079299,-0.00012897,0.0,0 STARLINK-3547,1 51889U 22022AP  22219.91667824 -.00012897  00000-0 -79299-3 0  9996,2 51889  53.2176 118.9181 0001770  68.1635 292.0895 15.08869538 25511,6917.79,95.436,540.88,538.431,0.0
51889.0,STARLINK-3547,PAYLOAD,2022-08-08 14:00:01,15.088741,0.0001634,53.218,115.924,70.8632,312.7323,0.0018636,0.00029524,0.0,0 STARLINK-3547,1 51889U 22022AP  22220.58335648  .00029524  00000-0  18636-2 0  9997,2 51889  53.2180 115.9240 0001634  70.8632 312.7323 15.08874100 25613,6917.776,95.435,540.7719999999998,538.511,0.0
51889.0,STARLINK-3547,PAYLOAD,2022-08-08 22:00:00,15.08897796,0.0001668,53.2183,114.429,66.1136,329.0686,-0.0031976,-0.00050899,0.0,0 STARLINK-3547,1 51889U 22022AP  22220.91667824 -.00050899  00000-0 -31976-2 0  9991,2 51889  53.2183 114.4290 0001668  66.1136 329.0686 15.08897796  1308,6917.704000000002,95.434,540.7230000000002,538.415,0.0
51889.0,STARLINK-3547,PAYLOAD,2022-08-09 06:00:00,15.08870434,0.0001581,53.2183,112.933,59.1244,347.6948,-0.0025954999999999,-0.00041393,0.0,0 STARLINK-3547,1 51889U 22022AP  22221.25001157 -.00041393  00000-0 -25955-2 0  9999,2 51889  53.2183 112.9330 0001581  59.1244 347.6948 15.08870434 25710,6917.7869999999975,95.436,540.746,538.559,0.0
51889.0,STARLINK-3547,PAYLOAD,2022-08-09 14:00:01,15.08816665,0.0001443999999999,53.2187,111.4351,66.9616,351.4738,0.0010532999999999,0.00016504,0.0,0 STARLINK-3547,1 51889U 22022AP  22221.58334491  .00016504  00000-0  10533-2 0  9995,2 51889  53.2187 111.4351 0001444  66.9616 351.4738 15.08816665  1303,6917.9519999999975,95.439,540.816,538.818,0.0
51889.0,STARLINK-3547,PAYLOAD,2022-08-09 22:00:00,15.0882454,0.0001641999999999,53.2189,109.9403,64.1173,5.891,-0.0016246,-0.0002604,0.0,0 STARLINK-3547,1 51889U 22022AP  22221.91667824 -.00026040  00000-0 -16246-2 0  9996,2 51889  53.2189 109.9403 0001642  64.1173   5.8910 15.08824540  1306,6917.928000000001,95.439,540.929,538.6569999999998,0.0
51889.0,STARLINK-3547,PAYLOAD,2022-08-10 06:00:00,15.08823523,0.0001641,53.2188,108.4443,60.19300000000001,21.379,0.00023573,3.464e-05,0.0,0 STARLINK-3547,1 51889U 22022AP  22222.25001157  .00003464  00000-0  23573-3 0  9990,2 51889  53.2188 108.4443 0001641  60.1930  21.3790 15.08823523 25865,6917.931,95.439,540.931,538.661,0.0
51889.0,STARLINK-3547,PAYLOAD,2022-08-10 14:00:01,15.08804863,0.0001538,53.2191,106.9465,69.4087,23.7446,0.0032336999999999,0.00051503,0.0,0 STARLINK-3547,1 51889U 22022AP  22222.58334491  .00051503  00000-0  32337-2 0  9990,2 51889  53.2191 106.9465 0001538  69.4087  23.7446 15.08804863  1309,6917.988,95.44,540.9169999999998,538.789,0.0
51889.0,STARLINK-3547,PAYLOAD,2022-08-10 22:00:00,15.08841906,0.0001665999999999,53.2191,105.4518,64.9052,39.8201,-0.0011028,-0.00017797,0.0,0 STARLINK-3547,1 51889U 22022AP  22222.91667824 -.00017797  00000-0 -11028-2 0  9999,2 51889  53.2191 105.4518 0001666  64.9052  39.8201 15.08841906  1302,6917.875,95.437,540.8919999999998,538.587,0.0
51889.0,STARLINK-3547,PAYLOAD,2022-08-11 06:00:02,15.08847465,0.0001661,53.2188,103.9555,62.3876,53.9869,-0.00043043,-7.133e-05,0.0,0 STARLINK-3547,1 51889U 22022AP  22223.25002315 -.00007133  00000-0 -43043-3 0  9991,2 51889  53.2188 103.9555 0001661  62.3876  53.9869 15.08847465 26011,6917.858,95.437,540.872,538.5740000000002,0.0
51889.0,STARLINK-3547,PAYLOAD,2022-08-11 14:00:01,15.08840124,0.0001594,53.219,102.4578,71.9101,56.0071,0.0004206,6.412e-05,0.0,0 STARLINK-3547,1 51889U 22022AP  22223.58334491  .00006412  00000-0  42060-3 0  9995,2 51889  53.2190 102.4578 0001594  71.9101  56.0071 15.08840124  1304,6917.88,95.438,540.8480000000002,538.6419999999998,0.0
51889.0,STARLINK-3547,PAYLOAD,2022-08-12 14:00:01,15.08830276,0.0001658,53.2184,97.9689,75.3771,87.3265,0.0027405,0.00043585,0.0,0 STARLINK-3547,1 51889U 22022AP  22224.58334491  .00043585  00000-0  27405-2 0  9993,2 51889  53.2184  97.9689 0001658  75.3771  87.3265 15.08830276  1309,6917.91,95.438,540.922,538.628,0.0
51889.0,STARLINK-3547,PAYLOAD,2022-08-12 22:00:01,15.08856193,0.0001747,53.2182,96.4741,69.3258,105.0389,-0.00088456,-0.00014345,0.0,0 STARLINK-3547,1 51889U 22022AP  22224.91668981 -.00014345  00000-0 -88456-3 0  9992,2 51889  53.2182  96.4741 0001747  69.3258 105.0389 15.08856193  1303,6917.831,95.437,540.904,538.487,0.0
51889.0,STARLINK-3547,PAYLOAD,2022-08-13 06:00:02,15.08865249,0.0001657,53.2177,94.9772,68.1286,117.8419,-0.0034374,-0.00054618,0.0,0 STARLINK-3547,1 51889U 22022AP  22225.25002315 -.00054618  00000-0 -34374-2 0  9999,2 51889  53.2177  94.9772 0001657  68.1286 117.8419 15.08865249 26317,6917.803000000001,95.436,540.814,538.5219999999998,0.0
51889.0,STARLINK-3547,PAYLOAD,2022-08-13 14:00:01,15.08820889,0.0001576999999999,53.2177,93.4797,76.3286,121.1811,0.0021691999999999,0.00034386,0.0,0 STARLINK-3547,1 51889U 22022AP  22225.58334491  .00034386  00000-0  21692-2 0  9995,2 51889  53.2177  93.4797 0001577  76.3286 121.1811 15.08820889  1307,6917.939,95.439,540.895,538.7130000000002,0.0
51889.0,STARLINK-3547,PAYLOAD,2022-08-13 22:00:00,15.08838833,0.0001674,53.2175,91.985,69.3351,139.7641,-0.00020537,-3.555e-05,0.0,0 STARLINK-3547,1 51889U 22022AP  22225.91667824 -.00003555  00000-0 -20537-3 0  9995,2 51889  53.2175  91.9850 0001674  69.3351 139.7641 15.08838833  1305,6917.884,95.438,540.9069999999998,538.591,0.0
51889.0,STARLINK-3547,PAYLOAD,2022-08-14 14:00:01,15.08848548,0.0001549,53.2173,88.9902,76.3796,155.92700000000005,-0.00051483,-8.474e-05,0.0,0 STARLINK-3547,1 51889U 22022AP  22226.58334491 -.00008474  00000-0 -51483-3 0  9999,2 51889  53.2173  88.9902 0001549  76.3796 155.9270 15.08848548  1301,6917.854,95.437,540.7909999999998,538.648,0.0
51889.0,STARLINK-3547,PAYLOAD,2022-08-14 22:00:00,15.0883068,0.0001623,53.2173,87.4955,67.5906,176.3203,0.00020921,3.042e-05,0.0,0 STARLINK-3547,1 51889U 22022AP  22226.91667824  .00003042  00000-0  20921-3 0  9992,2 51889  53.2173  87.4955 0001623  67.5906 176.3203 15.08830680  1302,6917.909000000002,95.438,540.8969999999998,538.651,0.0
51889.0,STARLINK-3547,PAYLOAD,2022-08-15 06:00:00,15.08859986,0.0001531999999999,53.2172,85.9983,67.176,188.3148,-0.0024111999999999,-0.00038479,0.0,0 STARLINK-3547,1 51889U 22022AP  22227.25001157 -.00038479  00000-0 -24112-2 0  9990,2 51889  53.2172  85.9983 0001532  67.1760 188.3148 15.08859986 26610,6917.819,95.436,540.744,538.624,0.0
51889.0,STARLINK-3547,PAYLOAD,2022-08-15 14:00:01,15.08830323,0.0001481,53.2174,84.5007,74.1904,192.9055,3.4691e-05,2.64e-06,0.0,0 STARLINK-3547,1 51889U 22022AP  22227.58334491  .00000264  00000-0  34691-4 0  9990,2 51889  53.2174  84.5007 0001481  74.1904 192.9055 15.08830323  1306,6917.91,95.438,540.8,538.75,0.0
51889.0,STARLINK-3547,PAYLOAD,2022-08-15 22:00:00,15.08817978,0.0001578,53.2176,83.0061,64.9983,213.682,0.00050024,7.678e-05,0.0,0 STARLINK-3547,1 51889U 22022AP  22227.91667824  .00007678  00000-0  50024-3 0  9999,2 51889  53.2176  83.0061 0001578  64.9983 213.6820 15.08817978  1305,6917.948,95.439,540.904,538.721,0.0
51889.0,STARLINK-3547,PAYLOAD,2022-08-16 06:00:02,15.08847954,0.0001495,53.2177,81.5089,65.1485,225.1641,-0.0019625,-0.00031392,0.0,0 STARLINK-3547,1 51889U 22022AP  22228.25002315 -.00031392  00000-0 -19625-2 0  9998,2 51889  53.2177  81.5089 0001495  65.1485 225.1641 15.08847954 26760,6917.856,95.437,540.755,538.687,0.0
51889.0,STARLINK-3547,PAYLOAD,2022-08-16 14:00:01,15.08832464,0.00015,53.2181,80.0115,73.0194,228.8222,0.0018827,0.00029796,0.0,0 STARLINK-3547,1 51889U 22022AP  22228.58334491  .00029796  00000-0  18827-2 0  9993,2 51889  53.2181  80.0115 0001500  73.0194 228.8222 15.08832464  1309,6917.903,95.438,540.806,538.731,0.0
51889.0,STARLINK-3547,PAYLOAD,2022-08-16 22:00:00,15.08841216,0.0001608,53.2183,78.517,64.1426,249.2967,0.00021209,3.089e-05,0.0,0 STARLINK-3547,1 51889U 22022AP  22228.91667824  .00003089  00000-0  21209-3 0  9995,2 51889  53.2183  78.5170 0001608  64.1426 249.2967 15.08841216 26868,6917.877,95.437,540.854,538.629,0.0
51889.0,STARLINK-3547,PAYLOAD,2022-08-17 16:00:00,15.08844939,0.0001439,53.2186,75.1482,69.5926,359.9209,-0.00094129,-0.00015239,0.0,0 STARLINK-3547,1 51889U 22022AP  22229.66667824 -.00015239  00000-0 -94129-3 0  9991,2 51889  53.2186  75.1482 0001439  69.5926 359.9209 15.08844939  1301,6917.865,95.437,540.726,538.735,0.0
